SL-16 R/B               
1 22803U 93059B   26112.80180490 -.00000099  00000+0 -25243-4 0  9992
2 22803  70.9890 278.1012 0015983 149.5590 210.6465 14.17238113685789
ARIANE 40 R/B           
1 22830U 93061H   26112.20266676  .00000136  00000+0  65704-4 0  9996
2 22830  98.4849 180.2152 0011441 150.2807 209.9030 14.32882769700338
COSMOS 2278             
1 23087U 94023A   26112.65853361  .00000268  00000+0  16459-3 0  9990
2 23087  71.0527  83.1038 0010290 311.9395  48.0849 14.14385381651025
SL-16 R/B               
1 23088U 94023B   26112.04892138 -.00000207  00000+0 -82015-4 0  9996
2 23088  71.0006 339.8307 0005335 246.6893 113.3669 14.15016007652225
SL-16 R/B               
1 23343U 94074B   26112.84572176  .00000289  00000+0  45290-4 0  9993
2 23343  97.7043 141.8616 0008077  80.4942  97.9424 14.79453480693775
SL-16 R/B               
1 23405U 94077B   26112.72028405  .00000206  00000+0  12996-3 0  9998
2 23405  70.9823 259.8531 0000604 136.1065 224.0106 14.15571141622465
ARIANE 40+ R/B          
1 23561U 95021B   26112.74745345  .00000164  00000+0  66092-4 0  9992
2 23561  98.4434 183.6175 0006932  20.9783  91.4240 14.39801484625589
SL-16 R/B               
1 23705U 95058B   26112.37606771 -.00000045  00000+0  11909-5 0  9997
2 23705  71.0202  88.5345 0010815  45.0816 315.1183 14.15505288574033
SL-16 R/B               
1 24298U 96051B   26112.36674779  .00000062  00000+0  60058-4 0  9997
2 24298  70.7594  82.7895 0012502  72.8348 287.4139 14.12426773527814
ORBVIEW 2 (SEASTAR)     
1 24883U 97037A   26112.74791281  .00000169  00000+0  74955-4 0  9991
2 24883  98.8638 278.2441 0001169 305.2006  54.9069 14.35523270514791
SL-16 R/B               
1 25400U 98043G   26112.79402931  .00000046  00000+0  38359-4 0  9993
2 25400  98.8322  66.4905 0008827 244.2377 115.7892 14.26059211445275
SL-16 R/B               
1 25407U 98045B   26112.64806147 -.00000254  00000+0 -10411-3 0  9994
2 25407  71.0095  89.1288 0009248 307.0675  52.9602 14.16197850433320
ISS (ZARYA)             
1 25544U 98067A   26112.52244765  .00007653  00000+0  14744-3 0  9990
2 25544  51.6320 215.6072 0006766 337.8366  22.2329 15.48891662563120
CZ-4B R/B               
1 25732U 99025C   26112.85064774  .00000016  00000+0  28716-4 0  9991
2 25732  98.6541 156.0676 0036468 216.4196 317.1351 14.18273554394424
OKEAN-O                 
1 25860U 99039A   26112.72182212  .00000351  00000+0  52783-4 0  9995
2 25860  97.9361 172.1460 0001452 114.9894 245.1469 14.80398225440907
SL-16 R/B               
1 25861U 99039B   26112.72792530  .00000323  00000+0  47696-4 0  9992
2 25861  97.9882 171.7384 0016121 112.8196 247.4721 14.81786498443382
DELTA 2 R/B             
1 25876U 99041E   26112.04730560  .00000279  00000+0  85115-4 0  9999
2 25876  51.7594 128.0686 0502513 116.2827 249.0629 14.11923052369159
