[{"OBJECT_NAME":"SL-16 R/B","OBJECT_ID":"1993-059B","EPOCH":"2026-04-22T19:14:35.943360","MEAN_MOTION":14.17238113,"ECCENTRICITY":0.0015983,"INCLINATION":70.989,"RA_OF_ASC_NODE":278.1012,"ARG_OF_PERICENTER":149.559,"MEAN_ANOMALY":210.6465,"EPHEMERIS_TYPE":0,"CLASSIFICATION_TYPE":"U","NORAD_CAT_ID":22803,"ELEMENT_SET_NO":999,"REV_AT_EPOCH":68578,"BSTAR":-2.5243e-5,"MEAN_MOTION_DOT":-9.9e-7,"MEAN_MOTION_DDOT":0},{"OBJECT_NAME":"ARIANE 40 R/B","OBJECT_ID":"1993-061H","EPOCH":"2026-04-22T04:51:50.408064","MEAN_MOTION":14.32882769,"ECCENTRICITY":0.00114417,"INCLINATION":98.4849,"RA_OF_ASC_NODE":180.2152,"ARG_OF_PERICENTER":150.2807,"MEAN_ANOMALY":209.903,"EPHEMERIS_TYPE":0,"CLASSIFICATION_TYPE":"U","NORAD_CAT_ID":22830,"ELEMENT_SET_NO":999,"REV_AT_EPOCH":70033,"BSTAR":6.5704051e-5,"MEAN_MOTION_DOT":1.36e-6,"MEAN_MOTION_DDOT":0},{"OBJECT_NAME":"COSMOS 2278","OBJECT_ID":"1994-023A","EPOCH":"2026-04-22T15:48:17.303904","MEAN_MOTION":14.14385381,"ECCENTRICITY":0.001029,"INCLINATION":71.0527,"RA_OF_ASC_NODE":83.1038,"ARG_OF_PERICENTER":311.9395,"MEAN_ANOMALY":48.0849,"EPHEMERIS_TYPE":0,"CLASSIFICATION_TYPE":"U","NORAD_CAT_ID":23087,"ELEMENT_SET_NO":999,"REV_AT_EPOCH":65102,"BSTAR":0.00016459,"MEAN_MOTION_DOT":2.68e-6,"MEAN_MOTION_DDOT":0},{"OBJECT_NAME":"SL-16 R/B","OBJECT_ID":"1994-023B","EPOCH":"2026-04-22T01:10:26.807232","MEAN_MOTION":14.15016007,"ECCENTRICITY":0.00053356,"INCLINATION":71.0006,"RA_OF_ASC_NODE":339.8307,"ARG_OF_PERICENTER":246.6893,"MEAN_ANOMALY":113.3669,"EPHEMERIS_TYPE":0,"CLASSIFICATION_TYPE":"U","NORAD_CAT_ID":23088,"ELEMENT_SET_NO":999,"REV_AT_EPOCH":65222,"BSTAR":-8.2014891e-5,"MEAN_MOTION_DOT":-2.07e-6,"MEAN_MOTION_DDOT":0},{"OBJECT_NAME":"SL-16 R/B","OBJECT_ID":"1994-074B","EPOCH":"2026-04-22T20:17:50.360064","MEAN_MOTION":14.7945348,"ECCENTRICITY":0.0008077,"INCLINATION":97.7043,"RA_OF_ASC_NODE":141.8616,"ARG_OF_PERICENTER":80.4942,"MEAN_ANOMALY":97.9424,"EPHEMERIS_TYPE":0,"CLASSIFICATION_TYPE":"U","NORAD_CAT_ID":23343,"ELEMENT_SET_NO":999,"REV_AT_EPOCH":69377,"BSTAR":4.529e-5,"MEAN_MOTION_DOT":2.89e-6,"MEAN_MOTION_DDOT":0},{"OBJECT_NAME":"SL-16 R/B","OBJECT_ID":"1994-077B","EPOCH":"2026-04-22T17:17:12.541920","MEAN_MOTION":14.15571141,"ECCENTRICITY":6.04e-5,"INCLINATION":70.9823,"RA_OF_ASC_NODE":259.8531,"ARG_OF_PERICENTER":136.1065,"MEAN_ANOMALY":224.0106,"EPHEMERIS_TYPE":0,"CLASSIFICATION_TYPE":"U","NORAD_CAT_ID":23405,"ELEMENT_SET_NO":999,"REV_AT_EPOCH":62246,"BSTAR":0.00012996,"MEAN_MOTION_DOT":2.06e-6,"MEAN_MOTION_DDOT":0},{"OBJECT_NAME":"ARIANE 40+ R/B","OBJECT_ID":"1995-021B","EPOCH":"2026-04-22T17:56:19.978080","MEAN_MOTION":14.39801484,"ECCENTRICITY":0.0006932,"INCLINATION":98.4434,"RA_OF_ASC_NODE":183.6175,"ARG_OF_PERICENTER":20.9783,"MEAN_ANOMALY":91.424,"EPHEMERIS_TYPE":0,"CLASSIFICATION_TYPE":"U","NORAD_CAT_ID":23561,"ELEMENT_SET_NO":999,"REV_AT_EPOCH":62558,"BSTAR":6.6092e-5,"MEAN_MOTION_DOT":1.64e-6,"MEAN_MOTION_DDOT":0},{"OBJECT_NAME":"SL-16 R/B","OBJECT_ID":"1995-058B","EPOCH":"2026-04-22T09:01:32.250144","MEAN_MOTION":14.15505288,"ECCENTRICITY":0.00108151,"INCLINATION":71.0202,"RA_OF_ASC_NODE":88.5345,"ARG_OF_PERICENTER":45.0816,"MEAN_ANOMALY":315.1183,"EPHEMERIS_TYPE":0,"CLASSIFICATION_TYPE":"U","NORAD_CAT_ID":23705,"ELEMENT_SET_NO":999,"REV_AT_EPOCH":57403,"BSTAR":1.190894e-6,"MEAN_MOTION_DOT":-4.5e-7,"MEAN_MOTION_DDOT":0},{"OBJECT_NAME":"SL-16 R/B","OBJECT_ID":"1996-051B","EPOCH":"2026-04-22T08:48:07.009056","MEAN_MOTION":14.12426773,"ECCENTRICITY":0.00125029,"INCLINATION":70.7594,"RA_OF_ASC_NODE":82.7895,"ARG_OF_PERICENTER":72.8348,"MEAN_ANOMALY":287.4139,"EPHEMERIS_TYPE":0,"CLASSIFICATION_TYPE":"U","NORAD_CAT_ID":24298,"ELEMENT_SET_NO":999,"REV_AT_EPOCH":52781,"BSTAR":6.0057966e-5,"MEAN_MOTION_DOT":6.2e-7,"MEAN_MOTION_DDOT":0},{"OBJECT_NAME":"ORBVIEW 2 (SEASTAR)","OBJECT_ID":"1997-037A","EPOCH":"2026-04-22T17:56:59.666784","MEAN_MOTION":14.3552327,"ECCENTRICITY":0.0001169,"INCLINATION":98.8638,"RA_OF_ASC_NODE":278.2441,"ARG_OF_PERICENTER":305.2006,"MEAN_ANOMALY":54.9069,"EPHEMERIS_TYPE":0,"CLASSIFICATION_TYPE":"U","NORAD_CAT_ID":24883,"ELEMENT_SET_NO":999,"REV_AT_EPOCH":51479,"BSTAR":7.4955e-5,"MEAN_MOTION_DOT":1.69e-6,"MEAN_MOTION_DDOT":0},{"OBJECT_NAME":"SL-16 R/B","OBJECT_ID":"1998-043G","EPOCH":"2026-04-22T19:03:24.132384","MEAN_MOTION":14.26059211,"ECCENTRICITY":0.0008827,"INCLINATION":98.8322,"RA_OF_ASC_NODE":66.4905,"ARG_OF_PERICENTER":244.2377,"MEAN_ANOMALY":115.7892,"EPHEMERIS_TYPE":0,"CLASSIFICATION_TYPE":"U","NORAD_CAT_ID":25400,"ELEMENT_SET_NO":999,"REV_AT_EPOCH":44527,"BSTAR":3.8359e-5,"MEAN_MOTION_DOT":4.6e-7,"MEAN_MOTION_DDOT":0},{"OBJECT_NAME":"SL-16 R/B","OBJECT_ID":"1998-045B","EPOCH":"2026-04-22T15:33:12.511008","MEAN_MOTION":14.1619785,"ECCENTRICITY":0.0009248,"INCLINATION":71.0095,"RA_OF_ASC_NODE":89.1288,"ARG_OF_PERICENTER":307.0675,"MEAN_ANOMALY":52.9602,"EPHEMERIS_TYPE":0,"CLASSIFICATION_TYPE":"U","NORAD_CAT_ID":25407,"ELEMENT_SET_NO":999,"REV_AT_EPOCH":43332,"BSTAR":-0.00010411,"MEAN_MOTION_DOT":-2.54e-6,"MEAN_MOTION_DDOT":0},{"OBJECT_NAME":"ISS (ZARYA)","OBJECT_ID":"1998-067A","EPOCH":"2026-04-22T12:32:19.476960","MEAN_MOTION":15.48891662,"ECCENTRICITY":0.00067665,"INCLINATION":51.632,"RA_OF_ASC_NODE":215.6072,"ARG_OF_PERICENTER":337.8366,"MEAN_ANOMALY":22.2329,"EPHEMERIS_TYPE":0,"CLASSIFICATION_TYPE":"U","NORAD_CAT_ID":25544,"ELEMENT_SET_NO":999,"REV_AT_EPOCH":56312,"BSTAR":0.00014744034,"MEAN_MOTION_DOT":7.653e-5,"MEAN_MOTION_DDOT":0},{"OBJECT_NAME":"CZ-4B R/B","OBJECT_ID":"1999-025C","EPOCH":"2026-04-22T20:24:55.964736","MEAN_MOTION":14.18273554,"ECCENTRICITY":0.0036468,"INCLINATION":98.6541,"RA_OF_ASC_NODE":156.0676,"ARG_OF_PERICENTER":216.4196,"MEAN_ANOMALY":317.1351,"EPHEMERIS_TYPE":0,"CLASSIFICATION_TYPE":"U","NORAD_CAT_ID":25732,"ELEMENT_SET_NO":999,"REV_AT_EPOCH":39442,"BSTAR":2.8716e-5,"MEAN_MOTION_DOT":1.6e-7,"MEAN_MOTION_DDOT":0},{"OBJECT_NAME":"OKEAN-O","OBJECT_ID":"1999-039A","EPOCH":"2026-04-22T17:19:25.431168","MEAN_MOTION":14.80398225,"ECCENTRICITY":0.0001452,"INCLINATION":97.9361,"RA_OF_ASC_NODE":172.146,"ARG_OF_PERICENTER":114.9894,"MEAN_ANOMALY":245.1469,"EPHEMERIS_TYPE":0,"CLASSIFICATION_TYPE":"U","NORAD_CAT_ID":25860,"ELEMENT_SET_NO":999,"REV_AT_EPOCH":44090,"BSTAR":5.2783e-5,"MEAN_MOTION_DOT":3.51e-6,"MEAN_MOTION_DDOT":0},{"OBJECT_NAME":"SL-16 R/B","OBJECT_ID":"1999-039B","EPOCH":"2026-04-22T17:28:12.745920","MEAN_MOTION":14.81786498,"ECCENTRICITY":0.0016121,"INCLINATION":97.9882,"RA_OF_ASC_NODE":171.7384,"ARG_OF_PERICENTER":112.8196,"MEAN_ANOMALY":247.4721,"EPHEMERIS_TYPE":0,"CLASSIFICATION_TYPE":"U","NORAD_CAT_ID":25861,"ELEMENT_SET_NO":999,"REV_AT_EPOCH":44338,"BSTAR":4.7696e-5,"MEAN_MOTION_DOT":3.23e-6,"MEAN_MOTION_DDOT":0},{"OBJECT_NAME":"DELTA 2 R/B","OBJECT_ID":"1999-041E","EPOCH":"2026-04-22T01:08:07.203840","MEAN_MOTION":14.11923052,"ECCENTRICITY":0.0502513,"INCLINATION":51.7594,"RA_OF_ASC_NODE":128.0686,"ARG_OF_PERICENTER":116.2827,"MEAN_ANOMALY":249.0629,"EPHEMERIS_TYPE":0,"CLASSIFICATION_TYPE":"U","NORAD_CAT_ID":25876,"ELEMENT_SET_NO":999,"REV_AT_EPOCH":36915,"BSTAR":8.5114529e-5,"MEAN_MOTION_DOT":2.79e-6,"MEAN_MOTION_DDOT":0}]
